[{"OBJECT_NAME":"STARLINK-30245","OBJECT_ID":"2023-119L","EPOCH":"2026-03-09T22:00:01.999584","MEAN_MOTION":15.18036601,"ECCENTRICITY":0.00011821,"INCLINATION":43.0006,"RA_OF_ASC_NODE":79.6426,"ARG_OF_PERICENTER":235.8464,"MEAN_ANOMALY":301.7171,"EPHEMERIS_TYPE":0,"CLASSIFICATION_TYPE":"U","NORAD_CAT_ID":57612,"ELEMENT_SET_NO":999,"REV_AT_EPOCH":562,"BSTAR":0.061700366,"MEAN_MOTION_DOT":0.01394408,"MEAN_MOTION_DDOT":0},{"OBJECT_NAME":"SCS-01 H","OBJECT_ID":"2025-100H","EPOCH":"2026-03-09T23:19:05.376864","MEAN_MOTION":15.31767757,"ECCENTRICITY":0.00071581,"INCLINATION":97.3749,"RA_OF_ASC_NODE":145.8085,"ARG_OF_PERICENTER":277.8492,"MEAN_ANOMALY":82.1937,"EPHEMERIS_TYPE":0,"CLASSIFICATION_TYPE":"U","NORAD_CAT_ID":63989,"ELEMENT_SET_NO":999,"REV_AT_EPOCH":4566,"BSTAR":0.0011436254,"MEAN_MOTION_DOT":0.00035149,"MEAN_MOTION_DDOT":0}]
